{"type": "FeatureCollection", "features": [ {"type": "Feature", "properties": {"norad_id": 58655, "name": "BEIDOU-3 M26 (C48)", "group": "beidou", "lat": -36.23331417655777, "lon": -81.15918617685979, "alt_km": 21523.53248027523, "timestamp": "2025-12-08T19:31:49.075786+00:00", "meta": {"OBJECT_NAME": "BEIDOU-3 M26 (C48)", "OBJECT_ID": "2023-207B", "EPOCH": "2025-12-07T09:40:28.837056", "MEAN_MOTION": 1.86231105, "ECCENTRICITY": 0.0003615, "INCLINATION": 55.5821, "RA_OF_ASC_NODE": 68.7685, "ARG_OF_PERICENTER": 253.2983, "MEAN_ANOMALY": 106.6805, "EPHEMERIS_TYPE": 0, "CLASSIFICATION_TYPE": "U", "NORAD_CAT_ID": 58655, "ELEMENT_SET_NO": 999, "REV_AT_EPOCH": 1325, "BSTAR": 0, "MEAN_MOTION_DOT": -4.6e-07, "MEAN_MOTION_DDOT": 0}, "tle": {"line1": "1 58655U 23207B   25341.40311154 -.00000046  00000+0  00000+0 0  9996", "line2": "2 58655  55.5821  68.7685 0003615 253.2983 106.6805  1.86231105 13258"}}, "geometry": {"type": "Point", "coordinates": [-81.15918617685979, -36.23331417655777]}}, {"type": "Feature", "properties": {"norad_id": 61186, "name": "BEIDOU-3 M25 (C47)", "group": "beidou", "lat": -14.018302491748704, "lon": -61.36690113870602, "alt_km": 21519.8243778274, "timestamp": "2025-12-08T19:31:49.075795+00:00", "meta": {"OBJECT_NAME": "BEIDOU-3 M25 (C47)", "OBJECT_ID": "2024-168B", "EPOCH": "2025-12-08T07:21:43.112736", "MEAN_MOTION": 1.86229841, "ECCENTRICITY": 0.00054456, "INCLINATION": 54.6459, "RA_OF_ASC_NODE": 308.8729, "ARG_OF_PERICENTER": 295.6588, "MEAN_ANOMALY": 67.0803, "EPHEMERIS_TYPE": 0, "CLASSIFICATION_TYPE": "U", "NORAD_CAT_ID": 61186, "ELEMENT_SET_NO": 999, "REV_AT_EPOCH": 823, "BSTAR": 0, "MEAN_MOTION_DOT": -7.3e-07, "MEAN_MOTION_DDOT": 0}, "tle": {"line1": "1 61186U 24168B   25342.30674899 -.00000073  00000+0  00000+0 0  9994", "line2": "2 61186  54.6459 308.8729 0005445 295.6588  67.0803  1.86229841  8233"}}, "geometry": {"type": "Point", "coordinates": [-61.36690113870602, -14.018302491748704]}}, {"type": "Feature", "properties": {"norad_id": 61187, "name": "BEIDOU-3 M27 (C49)", "group": "beidou", "lat": 46.24434977743008, "lon": 80.99604194445142, "alt_km": 21527.85354750208, "timestamp": "2025-12-08T19:31:49.075805+00:00", "meta": {"OBJECT_NAME": "BEIDOU-3 M27 (C49)", "OBJECT_ID": "2024-168C", "EPOCH": "2025-12-08T04:47:20.536800", "MEAN_MOTION": 1.86229984, "ECCENTRICITY": 0.00023097, "INCLINATION": 54.6414, "RA_OF_ASC_NODE": 308.8603, "ARG_OF_PERICENTER": 333.3276, "MEAN_ANOMALY": 92.4757, "EPHEMERIS_TYPE": 0, "CLASSIFICATION_TYPE": "U", "NORAD_CAT_ID": 61187, "ELEMENT_SET_NO": 999, "REV_AT_EPOCH": 570, "BSTAR": 0, "MEAN_MOTION_DOT": -7.3e-07, "MEAN_MOTION_DDOT": 0}, "tle": {"line1": "1 61187U 24168C   25342.19954325 -.00000073  00000+0  00000+0 0  9997", "line2": "2 61187  54.6414 308.8603 0002309 333.3276  92.4757  1.86229984  5703"}}, "geometry": {"type": "Point", "coordinates": [80.99604194445142, 46.24434977743008]}}]}